{
  "type": "FeatureCollection",
  "features": [
    {
      "type": "Feature",
      "properties": {
        "date": "1986-08-06",
        "satellite": "swh-spot1-4-l1a",
        "area_ha": 12.01,
        "uncertainty_ha": 1.28,
        "meters_per_pixel": 10,
        "incidence_angle_deg": 3.9,
        "oblique": false
      },
      "geometry": {
        "type": "Polygon",
        "coordinates": [
          [
            [
              44.546056,
              40.107868
            ],
            [
              44.545997,
              40.106971
            ],
            [
              44.546348,
              40.106075
            ],
            [
              44.547048,
              40.105402
            ],
            [
              44.547924,
              40.104864
            ],
            [
              44.5488,
              40.104729
            ],
            [
              44.549384,
              40.105178
            ],
            [
              44.549851,
              40.10585
            ],
            [
              44.550143,
              40.106523
            ],
            [
              44.55026,
              40.10742
            ],
            [
              44.549851,
              40.108093
            ],
            [
              44.5488,
              40.108541
            ],
            [
              44.547632,
              40.108631
            ],
            [
              44.546348,
              40.108541
            ],
            [
              44.546056,
              40.107868
            ]
          ]
        ]
      }
    },
    {
      "type": "Feature",
      "properties": {
        "date": "1989-07-28",
        "satellite": "swh-spot1-4-l1a",
        "area_ha": 15.93,
        "uncertainty_ha": 1.55,
        "meters_per_pixel": 10,
        "incidence_angle_deg": -0.7,
        "oblique": false
      },
      "geometry": {
        "type": "Polygon",
        "coordinates": [
          [
            [
              44.545297,
              40.108541
            ],
            [
              44.545297,
              40.106971
            ],
            [
              44.545764,
              40.106075
            ],
            [
              44.546464,
              40.10585
            ],
            [
              44.547048,
              40.105178
            ],
            [
              44.547924,
              40.104729
            ],
            [
              44.5488,
              40.104729
            ],
            [
              44.549384,
              40.105178
            ],
            [
              44.549851,
              40.10585
            ],
            [
              44.550143,
              40.106523
            ],
            [
              44.55026,
              40.10742
            ],
            [
              44.549968,
              40.108093
            ],
            [
              44.5488,
              40.108541
            ],
            [
              44.547632,
              40.108765
            ],
            [
              44.546756,
              40.109528
            ],
            [
              44.545589,
              40.109528
            ],
            [
              44.545297,
              40.108541
            ]
          ]
        ]
      }
    },
    {
      "type": "Feature",
      "properties": {
        "date": "1990-09-04",
        "satellite": "swh-spot1-4-l1a",
        "area_ha": 16.14,
        "uncertainty_ha": 1.55,
        "meters_per_pixel": 10,
        "incidence_angle_deg": -1.9,
        "oblique": false
      },
      "geometry": {
        "type": "Polygon",
        "coordinates": [
          [
            [
              44.545297,
              40.108541
            ],
            [
              44.545297,
              40.106747
            ],
            [
              44.545764,
              40.10585
            ],
            [
              44.546464,
              40.105626
            ],
            [
              44.547048,
              40.105178
            ],
            [
              44.547924,
              40.104729
            ],
            [
              44.5488,
              40.104729
            ],
            [
              44.549384,
              40.105178
            ],
            [
              44.549851,
              40.10585
            ],
            [
              44.550143,
              40.106523
            ],
            [
              44.55026,
              40.10742
            ],
            [
              44.549968,
              40.108093
            ],
            [
              44.5488,
              40.108541
            ],
            [
              44.547632,
              40.108765
            ],
            [
              44.546931,
              40.109438
            ],
            [
              44.545589,
              40.109438
            ],
            [
              44.545297,
              40.108541
            ]
          ]
        ]
      }
    },
    {
      "type": "Feature",
      "properties": {
        "date": "1991-09-29",
        "satellite": "swh-spot1-4-l1a",
        "area_ha": 15.51,
        "uncertainty_ha": 1.52,
        "meters_per_pixel": 10,
        "incidence_angle_deg": -1.6,
        "oblique": false
      },
      "geometry": {
        "type": "Polygon",
        "coordinates": [
          [
            [
              44.545647,
              40.108541
            ],
            [
              44.545589,
              40.107196
            ],
            [
              44.545764,
              40.106075
            ],
            [
              44.546348,
              40.105626
            ],
            [
              44.547048,
              40.105178
            ],
            [
              44.547924,
              40.104729
            ],
            [
              44.5488,
              40.104729
            ],
            [
              44.549384,
              40.105178
            ],
            [
              44.549851,
              40.10585
            ],
            [
              44.550143,
              40.106523
            ],
            [
              44.55026,
              40.10742
            ],
            [
              44.549968,
              40.108093
            ],
            [
              44.5488,
              40.108541
            ],
            [
              44.547749,
              40.1089
            ],
            [
              44.547165,
              40.109528
            ],
            [
              44.545881,
              40.109528
            ],
            [
              44.545647,
              40.108541
            ]
          ]
        ]
      }
    },
    {
      "type": "Feature",
      "properties": {
        "date": "1992-09-06",
        "satellite": "swh-spot1-4-l1a",
        "area_ha": 19.23,
        "uncertainty_ha": 1.65,
        "meters_per_pixel": 10,
        "incidence_angle_deg": 4.3,
        "oblique": false
      },
      "geometry": {
        "type": "Polygon",
        "coordinates": [
          [
            [
              44.545413,
              40.108765
            ],
            [
              44.545297,
              40.107644
            ],
            [
              44.545122,
              40.106299
            ],
            [
              44.545413,
              40.105402
            ],
            [
              44.546172,
              40.105178
            ],
            [
              44.547048,
              40.104953
            ],
            [
              44.547924,
              40.104729
            ],
            [
              44.5488,
              40.104729
            ],
            [
              44.5495,
              40.105178
            ],
            [
              44.550084,
              40.10585
            ],
            [
              44.550435,
              40.106523
            ],
            [
              44.550668,
              40.10742
            ],
            [
              44.550551,
              40.108093
            ],
            [
              44.549676,
              40.108541
            ],
            [
              44.548508,
              40.108765
            ],
            [
              44.547632,
              40.109214
            ],
            [
              44.546756,
              40.109662
            ],
            [
              44.545589,
              40.109438
            ],
            [
              44.545413,
              40.108765
            ]
          ]
        ]
      }
    },
    {
      "type": "Feature",
      "properties": {
        "date": "1994-08-17",
        "satellite": "swh-spot1-4-l1a",
        "area_ha": 19.58,
        "uncertainty_ha": 1.67,
        "meters_per_pixel": 10,
        "incidence_angle_deg": 8.3,
        "oblique": false
      },
      "geometry": {
        "type": "Polygon",
        "coordinates": [
          [
            [
              44.545413,
              40.108631
            ],
            [
              44.545297,
              40.107644
            ],
            [
              44.545122,
              40.106299
            ],
            [
              44.545413,
              40.105312
            ],
            [
              44.546172,
              40.105043
            ],
            [
              44.547048,
              40.104864
            ],
            [
              44.547924,
              40.104595
            ],
            [
              44.5488,
              40.104595
            ],
            [
              44.5495,
              40.105178
            ],
            [
              44.550084,
              40.10585
            ],
            [
              44.550435,
              40.106523
            ],
            [
              44.550668,
              40.10742
            ],
            [
              44.550551,
              40.108093
            ],
            [
              44.549676,
              40.108541
            ],
            [
              44.548508,
              40.108765
            ],
            [
              44.547632,
              40.109214
            ],
            [
              44.546756,
              40.109662
            ],
            [
              44.545589,
              40.109348
            ],
            [
              44.545413,
              40.108631
            ]
          ]
        ]
      }
    },
    {
      "type": "Feature",
      "properties": {
        "date": "1997-08-26",
        "satellite": "swh-spot1-4-l1a",
        "area_ha": 21.71,
        "uncertainty_ha": 1.77,
        "meters_per_pixel": 10,
        "incidence_angle_deg": -2.9,
        "oblique": false
      },
      "geometry": {
        "type": "Polygon",
        "coordinates": [
          [
            [
              44.545413,
              40.108765
            ],
            [
              44.545297,
              40.107868
            ],
            [
              44.54518,
              40.106747
            ],
            [
              44.545005,
              40.105626
            ],
            [
              44.545297,
              40.104595
            ],
            [
              44.545997,
              40.104191
            ],
            [
              44.547048,
              40.104191
            ],
            [
              44.547924,
              40.104415
            ],
            [
              44.5488,
              40.104595
            ],
            [
              44.5495,
              40.105178
            ],
            [
              44.550084,
              40.10585
            ],
            [
              44.550435,
              40.106523
            ],
            [
              44.550668,
              40.10742
            ],
            [
              44.550551,
              40.108093
            ],
            [
              44.549676,
              40.108541
            ],
            [
              44.548508,
              40.108765
            ],
            [
              44.547632,
              40.109214
            ],
            [
              44.546756,
              40.109662
            ],
            [
              44.545589,
              40.109438
            ],
            [
              44.545413,
              40.108765
            ]
          ]
        ]
      }
    },
    {
      "type": "Feature",
      "properties": {
        "date": "1999-07-02",
        "satellite": "swh-spot1-4-l1a",
        "area_ha": 21.9,
        "uncertainty_ha": 1.78,
        "meters_per_pixel": 10,
        "incidence_angle_deg": -14.1,
        "oblique": false
      },
      "geometry": {
        "type": "Polygon",
        "coordinates": [
          [
            [
              44.54553,
              40.108765
            ],
            [
              44.545413,
              40.107868
            ],
            [
              44.545297,
              40.106747
            ],
            [
              44.545122,
              40.105626
            ],
            [
              44.545297,
              40.104505
            ],
            [
              44.545997,
              40.104056
            ],
            [
              44.547048,
              40.103967
            ],
            [
              44.548216,
              40.104056
            ],
            [
              44.548917,
              40.104415
            ],
            [
              44.5495,
              40.105043
            ],
            [
              44.550084,
              40.10585
            ],
            [
              44.550435,
              40.106523
            ],
            [
              44.550668,
              40.10742
            ],
            [
              44.550551,
              40.108093
            ],
            [
              44.549676,
              40.108541
            ],
            [
              44.548508,
              40.108765
            ],
            [
              44.547632,
              40.109079
            ],
            [
              44.546756,
              40.109528
            ],
            [
              44.545764,
              40.109348
            ],
            [
              44.54553,
              40.108765
            ]
          ]
        ]
      }
    },
    {
      "type": "Feature",
      "properties": {
        "date": "2000-07-26",
        "satellite": "swh-spot1-4-l1a",
        "area_ha": 21.66,
        "uncertainty_ha": 1.78,
        "meters_per_pixel": 10,
        "incidence_angle_deg": -14.5,
        "oblique": false
      },
      "geometry": {
        "type": "Polygon",
        "coordinates": [
          [
            [
              44.545472,
              40.108317
            ],
            [
              44.545297,
              40.107196
            ],
            [
              44.545297,
              40.106075
            ],
            [
              44.545589,
              40.105178
            ],
            [
              44.546348,
              40.104415
            ],
            [
              44.547165,
              40.103832
            ],
            [
              44.548099,
              40.103518
            ],
            [
              44.548917,
              40.103698
            ],
            [
              44.549384,
              40.104505
            ],
            [
              44.549851,
              40.105402
            ],
            [
              44.55026,
              40.106299
            ],
            [
              44.550435,
              40.107196
            ],
            [
              44.550551,
              40.108003
            ],
            [
              44.549968,
              40.108541
            ],
            [
              44.5488,
              40.108765
            ],
            [
              44.547632,
              40.109079
            ],
            [
              44.546756,
              40.109438
            ],
            [
              44.545764,
              40.109214
            ],
            [
              44.545472,
              40.108317
            ]
          ]
        ]
      }
    },
    {
      "type": "Feature",
      "properties": {
        "date": "2002-08-19",
        "satellite": "swh-spot1-4-l1a",
        "area_ha": 22.3,
        "uncertainty_ha": 1.83,
        "meters_per_pixel": 10,
        "incidence_angle_deg": -15.2,
        "oblique": true
      },
      "geometry": {
        "type": "Polygon",
        "coordinates": [
          [
            [
              44.545472,
              40.108317
            ],
            [
              44.545297,
              40.107196
            ],
            [
              44.545297,
              40.106075
            ],
            [
              44.545647,
              40.105043
            ],
            [
              44.546464,
              40.104236
            ],
            [
              44.54734,
              40.103608
            ],
            [
              44.548216,
              40.103249
            ],
            [
              44.549092,
              40.103518
            ],
            [
              44.549384,
              40.104415
            ],
            [
              44.549851,
              40.105402
            ],
            [
              44.55026,
              40.106299
            ],
            [
              44.550435,
              40.107196
            ],
            [
              44.550551,
              40.108003
            ],
            [
              44.549968,
              40.108541
            ],
            [
              44.5488,
              40.108765
            ],
            [
              44.547632,
              40.109079
            ],
            [
              44.546756,
              40.109438
            ],
            [
              44.545764,
              40.109214
            ],
            [
              44.545472,
              40.108317
            ]
          ]
        ]
      }
    },
    {
      "type": "Feature",
      "properties": {
        "date": "2003-09-06",
        "satellite": "swh-spot5-l1a",
        "area_ha": 22.89,
        "uncertainty_ha": 0.92,
        "meters_per_pixel": 5,
        "incidence_angle_deg": -1.5,
        "oblique": false
      },
      "geometry": {
        "type": "Polygon",
        "coordinates": [
          [
            [
              44.545764,
              40.108765
            ],
            [
              44.545589,
              40.107868
            ],
            [
              44.545413,
              40.106747
            ],
            [
              44.545589,
              40.105626
            ],
            [
              44.545997,
              40.104729
            ],
            [
              44.546464,
              40.104056
            ],
            [
              44.54734,
              40.103608
            ],
            [
              44.547924,
              40.103249
            ],
            [
              44.5488,
              40.103384
            ],
            [
              44.549092,
              40.104056
            ],
            [
              44.549676,
              40.104953
            ],
            [
              44.550143,
              40.10585
            ],
            [
              44.550435,
              40.106747
            ],
            [
              44.550551,
              40.107644
            ],
            [
              44.55026,
              40.108317
            ],
            [
              44.549676,
              40.108765
            ],
            [
              44.5488,
              40.109079
            ],
            [
              44.547632,
              40.109662
            ],
            [
              44.545997,
              40.109528
            ],
            [
              44.545764,
              40.108765
            ]
          ]
        ]
      }
    },
    {
      "type": "Feature",
      "properties": {
        "date": "2004-06-18",
        "satellite": "swh-spot5-l1a",
        "area_ha": 22.04,
        "uncertainty_ha": 0.95,
        "meters_per_pixel": 5,
        "incidence_angle_deg": -1.7,
        "oblique": false
      },
      "geometry": {
        "type": "Polygon",
        "coordinates": [
          [
            [
              44.545589,
              40.108317
            ],
            [
              44.545472,
              40.107196
            ],
            [
              44.545413,
              40.106075
            ],
            [
              44.545764,
              40.105402
            ],
            [
              44.546348,
              40.104505
            ],
            [
              44.546931,
              40.103832
            ],
            [
              44.547632,
              40.103384
            ],
            [
              44.548508,
              40.103249
            ],
            [
              44.549209,
              40.103608
            ],
            [
              44.549384,
              40.104281
            ],
            [
              44.549676,
              40.105178
            ],
            [
              44.550084,
              40.10585
            ],
            [
              44.550318,
              40.106523
            ],
            [
              44.550435,
              40.10742
            ],
            [
              44.550668,
              40.108093
            ],
            [
              44.550435,
              40.108631
            ],
            [
              44.549384,
              40.108765
            ],
            [
              44.548216,
              40.108765
            ],
            [
              44.54734,
              40.109079
            ],
            [
              44.546581,
              40.109617
            ],
            [
              44.545764,
              40.109438
            ],
            [
              44.545589,
              40.108317
            ]
          ]
        ]
      }
    },
    {
      "type": "Feature",
      "properties": {
        "date": "2005-09-23",
        "satellite": "swh-spot5-l1a",
        "area_ha": 21.87,
        "uncertainty_ha": 0.92,
        "meters_per_pixel": 5,
        "incidence_angle_deg": 24,
        "oblique": true
      },
      "geometry": {
        "type": "Polygon",
        "coordinates": [
          [
            [
              44.545647,
              40.108541
            ],
            [
              44.545472,
              40.107644
            ],
            [
              44.545297,
              40.106523
            ],
            [
              44.545589,
              40.105626
            ],
            [
              44.546348,
              40.104864
            ],
            [
              44.547048,
              40.104056
            ],
            [
              44.547924,
              40.103384
            ],
            [
              44.5488,
              40.103249
            ],
            [
              44.549384,
              40.103832
            ],
            [
              44.549851,
              40.104729
            ],
            [
              44.55026,
              40.105626
            ],
            [
              44.550435,
              40.106523
            ],
            [
              44.550668,
              40.10742
            ],
            [
              44.550843,
              40.108317
            ],
            [
              44.55026,
              40.108676
            ],
            [
              44.549092,
              40.108765
            ],
            [
              44.547924,
              40.108676
            ],
            [
              44.547048,
              40.10899
            ],
            [
              44.545881,
              40.109214
            ],
            [
              44.545647,
              40.108541
            ]
          ]
        ]
      }
    },
    {
      "type": "Feature",
      "properties": {
        "date": "2006-08-12",
        "satellite": "swh-spot5-l1a",
        "area_ha": 20.55,
        "uncertainty_ha": 0.88,
        "meters_per_pixel": 5,
        "incidence_angle_deg": 6.3,
        "oblique": false
      },
      "geometry": {
        "type": "Polygon",
        "coordinates": [
          [
            [
              44.545472,
              40.10742
            ],
            [
              44.545589,
              40.106299
            ],
            [
              44.545881,
              40.105178
            ],
            [
              44.546464,
              40.104281
            ],
            [
              44.54734,
              40.103608
            ],
            [
              44.548216,
              40.103159
            ],
            [
              44.549092,
              40.103384
            ],
            [
              44.549384,
              40.104281
            ],
            [
              44.549851,
              40.105402
            ],
            [
              44.550143,
              40.106299
            ],
            [
              44.550435,
              40.107196
            ],
            [
              44.550551,
              40.108093
            ],
            [
              44.549676,
              40.108631
            ],
            [
              44.548508,
              40.108765
            ],
            [
              44.547048,
              40.10899
            ],
            [
              44.545764,
              40.108765
            ],
            [
              44.545472,
              40.10742
            ]
          ]
        ]
      }
    },
    {
      "type": "Feature",
      "properties": {
        "date": "2007-08-01",
        "satellite": "swh-spot5-l1a",
        "area_ha": 23.72,
        "uncertainty_ha": 0.99,
        "meters_per_pixel": 5,
        "incidence_angle_deg": -10.2,
        "oblique": false
      },
      "geometry": {
        "type": "Polygon",
        "coordinates": [
          [
            [
              44.545472,
              40.108093
            ],
            [
              44.545297,
              40.106971
            ],
            [
              44.545297,
              40.10585
            ],
            [
              44.54483,
              40.105178
            ],
            [
              44.545005,
              40.104595
            ],
            [
              44.546172,
              40.104236
            ],
            [
              44.547048,
              40.104056
            ],
            [
              44.547515,
              40.103608
            ],
            [
              44.548216,
              40.103159
            ],
            [
              44.548917,
              40.103294
            ],
            [
              44.549384,
              40.104056
            ],
            [
              44.549851,
              40.104953
            ],
            [
              44.55026,
              40.10585
            ],
            [
              44.550435,
              40.106523
            ],
            [
              44.550551,
              40.10742
            ],
            [
              44.550843,
              40.108317
            ],
            [
              44.55026,
              40.108676
            ],
            [
              44.5488,
              40.108676
            ],
            [
              44.547632,
              40.108765
            ],
            [
              44.546756,
              40.109348
            ],
            [
              44.545764,
              40.109214
            ],
            [
              44.545472,
              40.108093
            ]
          ]
        ]
      }
    },
    {
      "type": "Feature",
      "properties": {
        "date": "2010-07-12",
        "satellite": "swh-spot5-l1a",
        "area_ha": 23.93,
        "uncertainty_ha": 0.98,
        "meters_per_pixel": 5,
        "incidence_angle_deg": 6,
        "oblique": false
      },
      "geometry": {
        "type": "Polygon",
        "coordinates": [
          [
            [
              44.54553,
              40.108765
            ],
            [
              44.545297,
              40.107868
            ],
            [
              44.545122,
              40.106747
            ],
            [
              44.545005,
              40.105626
            ],
            [
              44.54518,
              40.104864
            ],
            [
              44.545881,
              40.104415
            ],
            [
              44.546756,
              40.104146
            ],
            [
              44.54734,
              40.103832
            ],
            [
              44.547924,
              40.103249
            ],
            [
              44.5488,
              40.103249
            ],
            [
              44.549384,
              40.103608
            ],
            [
              44.549559,
              40.104281
            ],
            [
              44.549968,
              40.105178
            ],
            [
              44.550318,
              40.10585
            ],
            [
              44.550435,
              40.106523
            ],
            [
              44.550551,
              40.10742
            ],
            [
              44.550843,
              40.108093
            ],
            [
              44.55026,
              40.108407
            ],
            [
              44.549092,
              40.108541
            ],
            [
              44.547924,
              40.108541
            ],
            [
              44.547515,
              40.109079
            ],
            [
              44.546756,
              40.109573
            ],
            [
              44.545881,
              40.109438
            ],
            [
              44.54553,
              40.108765
            ]
          ]
        ]
      }
    },
    {
      "type": "Feature",
      "properties": {
        "date": "2011-07-11",
        "satellite": "swh-spot5-l1a",
        "area_ha": 24.2,
        "uncertainty_ha": 1,
        "meters_per_pixel": 5,
        "incidence_angle_deg": 5.9,
        "oblique": false
      },
      "geometry": {
        "type": "Polygon",
        "coordinates": [
          [
            [
              44.54553,
              40.108541
            ],
            [
              44.545297,
              40.107196
            ],
            [
              44.545122,
              40.106075
            ],
            [
              44.544888,
              40.105312
            ],
            [
              44.54483,
              40.104595
            ],
            [
              44.545764,
              40.104236
            ],
            [
              44.546756,
              40.104236
            ],
            [
              44.54734,
              40.103832
            ],
            [
              44.547924,
              40.103249
            ],
            [
              44.5488,
              40.103249
            ],
            [
              44.549384,
              40.103608
            ],
            [
              44.549559,
              40.104281
            ],
            [
              44.549968,
              40.105178
            ],
            [
              44.550318,
              40.10585
            ],
            [
              44.550435,
              40.106523
            ],
            [
              44.550551,
              40.10742
            ],
            [
              44.550843,
              40.108093
            ],
            [
              44.550435,
              40.108407
            ],
            [
              44.549384,
              40.108541
            ],
            [
              44.548216,
              40.108541
            ],
            [
              44.547632,
              40.10899
            ],
            [
              44.546756,
              40.109528
            ],
            [
              44.545881,
              40.109438
            ],
            [
              44.54553,
              40.108541
            ]
          ]
        ]
      }
    },
    {
      "type": "Feature",
      "properties": {
        "date": "2012-06-28",
        "satellite": "swh-spot5-l1a",
        "area_ha": 25.73,
        "uncertainty_ha": 1.02,
        "meters_per_pixel": 5,
        "incidence_angle_deg": 23.7,
        "oblique": true
      },
      "geometry": {
        "type": "Polygon",
        "coordinates": [
          [
            [
              44.545472,
              40.108541
            ],
            [
              44.54518,
              40.106971
            ],
            [
              44.545005,
              40.10585
            ],
            [
              44.544713,
              40.105178
            ],
            [
              44.54483,
              40.10437
            ],
            [
              44.545881,
              40.104056
            ],
            [
              44.547048,
              40.103967
            ],
            [
              44.547632,
              40.103832
            ],
            [
              44.548041,
              40.103249
            ],
            [
              44.5488,
              40.103249
            ],
            [
              44.5495,
              40.103608
            ],
            [
              44.549734,
              40.104281
            ],
            [
              44.550084,
              40.105178
            ],
            [
              44.550435,
              40.10585
            ],
            [
              44.550551,
              40.106523
            ],
            [
              44.550668,
              40.10742
            ],
            [
              44.550843,
              40.108093
            ],
            [
              44.550435,
              40.108407
            ],
            [
              44.549384,
              40.108541
            ],
            [
              44.548216,
              40.108631
            ],
            [
              44.547632,
              40.109214
            ],
            [
              44.546756,
              40.109662
            ],
            [
              44.545881,
              40.109528
            ],
            [
              44.545472,
              40.108541
            ]
          ]
        ]
      }
    },
    {
      "type": "Feature",
      "properties": {
        "date": "2013-06-02",
        "satellite": "swh-spot5-l1a",
        "area_ha": 26.67,
        "uncertainty_ha": 1.01,
        "meters_per_pixel": 5,
        "incidence_angle_deg": -6.2,
        "oblique": false
      },
      "geometry": {
        "type": "Polygon",
        "coordinates": [
          [
            [
              44.54553,
              40.108541
            ],
            [
              44.54518,
              40.106971
            ],
            [
              44.545005,
              40.10585
            ],
            [
              44.54483,
              40.105178
            ],
            [
              44.54483,
              40.104415
            ],
            [
              44.545589,
              40.103967
            ],
            [
              44.546756,
              40.103787
            ],
            [
              44.547632,
              40.103787
            ],
            [
              44.548041,
              40.103249
            ],
            [
              44.5488,
              40.103249
            ],
            [
              44.5495,
              40.103608
            ],
            [
              44.549734,
              40.104281
            ],
            [
              44.550084,
              40.105178
            ],
            [
              44.550435,
              40.10585
            ],
            [
              44.550551,
              40.106523
            ],
            [
              44.550668,
              40.10742
            ],
            [
              44.550843,
              40.108093
            ],
            [
              44.55026,
              40.108407
            ],
            [
              44.549092,
              40.108631
            ],
            [
              44.5488,
              40.109214
            ],
            [
              44.547924,
              40.109528
            ],
            [
              44.546931,
              40.109573
            ],
            [
              44.545997,
              40.109438
            ],
            [
              44.54553,
              40.108541
            ]
          ]
        ]
      }
    },
    {
      "type": "Feature",
      "properties": {
        "date": "2014-08-22",
        "satellite": "swh-spot5-l1a",
        "area_ha": 26.63,
        "uncertainty_ha": 1.01,
        "meters_per_pixel": 5,
        "incidence_angle_deg": 30.1,
        "oblique": true
      },
      "geometry": {
        "type": "Polygon",
        "coordinates": [
          [
            [
              44.54553,
              40.108541
            ],
            [
              44.545297,
              40.107196
            ],
            [
              44.54518,
              40.106075
            ],
            [
              44.545122,
              40.105178
            ],
            [
              44.545005,
              40.104415
            ],
            [
              44.545589,
              40.103967
            ],
            [
              44.546581,
              40.103832
            ],
            [
              44.547632,
              40.103698
            ],
            [
              44.548041,
              40.103249
            ],
            [
              44.5488,
              40.103249
            ],
            [
              44.5495,
              40.103608
            ],
            [
              44.549734,
              40.104281
            ],
            [
              44.550084,
              40.105178
            ],
            [
              44.550435,
              40.10585
            ],
            [
              44.550551,
              40.106523
            ],
            [
              44.550727,
              40.10742
            ],
            [
              44.55096,
              40.108093
            ],
            [
              44.550551,
              40.108541
            ],
            [
              44.549676,
              40.108765
            ],
            [
              44.5488,
              40.109079
            ],
            [
              44.547632,
              40.109438
            ],
            [
              44.546756,
              40.109662
            ],
            [
              44.545764,
              40.109348
            ],
            [
              44.54553,
              40.108541
            ]
          ]
        ]
      }
    },
    {
      "type": "Feature",
      "properties": {
        "date": "2016-08-25",
        "satellite": "sentinel-2-l2a",
        "area_ha": 27.76,
        "uncertainty_ha": 2,
        "meters_per_pixel": 10,
        "incidence_angle_deg": null,
        "oblique": false
      },
      "geometry": {
        "type": "Polygon",
        "coordinates": [
          [
            [
              44.545122,
              40.108317
            ],
            [
              44.545005,
              40.107196
            ],
            [
              44.544888,
              40.106075
            ],
            [
              44.545005,
              40.105178
            ],
            [
              44.545297,
              40.104505
            ],
            [
              44.545881,
              40.104056
            ],
            [
              44.547048,
              40.103832
            ],
            [
              44.548216,
              40.103608
            ],
            [
              44.549092,
              40.103832
            ],
            [
              44.549676,
              40.104505
            ],
            [
              44.549968,
              40.105402
            ],
            [
              44.55026,
              40.106075
            ],
            [
              44.550551,
              40.106747
            ],
            [
              44.550668,
              40.107644
            ],
            [
              44.551135,
              40.108093
            ],
            [
              44.551019,
              40.108765
            ],
            [
              44.549968,
              40.109214
            ],
            [
              44.5488,
              40.109528
            ],
            [
              44.547632,
              40.109662
            ],
            [
              44.546172,
              40.109528
            ],
            [
              44.545297,
              40.109348
            ],
            [
              44.545122,
              40.108317
            ]
          ]
        ]
      }
    },
    {
      "type": "Feature",
      "properties": {
        "date": "2017-09-09",
        "satellite": "sentinel-2-l2a",
        "area_ha": 26.93,
        "uncertainty_ha": 1.98,
        "meters_per_pixel": 10,
        "incidence_angle_deg": null,
        "oblique": false
      },
      "geometry": {
        "type": "Polygon",
        "coordinates": [
          [
            [
              44.54553,
              40.108541
            ],
            [
              44.545355,
              40.10742
            ],
            [
              44.545238,
              40.106523
            ],
            [
              44.545122,
              40.105626
            ],
            [
              44.54518,
              40.104729
            ],
            [
              44.545589,
              40.104056
            ],
            [
              44.546464,
              40.103832
            ],
            [
              44.54734,
              40.103698
            ],
            [
              44.548216,
              40.103608
            ],
            [
              44.549092,
              40.103698
            ],
            [
              44.549676,
              40.104281
            ],
            [
              44.550084,
              40.105178
            ],
            [
              44.550435,
              40.10585
            ],
            [
              44.550551,
              40.106747
            ],
            [
              44.550668,
              40.107644
            ],
            [
              44.551135,
              40.108093
            ],
            [
              44.551019,
              40.108765
            ],
            [
              44.55026,
              40.109079
            ],
            [
              44.549092,
              40.109348
            ],
            [
              44.547924,
              40.109528
            ],
            [
              44.546756,
              40.109662
            ],
            [
              44.545881,
              40.109438
            ],
            [
              44.54553,
              40.108541
            ]
          ]
        ]
      }
    },
    {
      "type": "Feature",
      "properties": {
        "date": "2018-09-14",
        "satellite": "sentinel-2-l2a",
        "area_ha": 27.74,
        "uncertainty_ha": 2.02,
        "meters_per_pixel": 10,
        "incidence_angle_deg": null,
        "oblique": false
      },
      "geometry": {
        "type": "Polygon",
        "coordinates": [
          [
            [
              44.54553,
              40.108541
            ],
            [
              44.545297,
              40.107196
            ],
            [
              44.54518,
              40.106075
            ],
            [
              44.545122,
              40.105178
            ],
            [
              44.545297,
              40.104281
            ],
            [
              44.545881,
              40.103832
            ],
            [
              44.546756,
              40.103698
            ],
            [
              44.547632,
              40.103608
            ],
            [
              44.548508,
              40.103339
            ],
            [
              44.549267,
              40.103608
            ],
            [
              44.549676,
              40.104281
            ],
            [
              44.550084,
              40.105178
            ],
            [
              44.550435,
              40.10585
            ],
            [
              44.550551,
              40.106747
            ],
            [
              44.550668,
              40.107644
            ],
            [
              44.551135,
              40.108093
            ],
            [
              44.551019,
              40.108765
            ],
            [
              44.55026,
              40.109214
            ],
            [
              44.549092,
              40.109438
            ],
            [
              44.547924,
              40.109528
            ],
            [
              44.546756,
              40.109662
            ],
            [
              44.545881,
              40.109438
            ],
            [
              44.54553,
              40.108541
            ]
          ]
        ]
      }
    },
    {
      "type": "Feature",
      "properties": {
        "date": "2019-09-24",
        "satellite": "sentinel-2-l2a",
        "area_ha": 24.69,
        "uncertainty_ha": 1.89,
        "meters_per_pixel": 10,
        "incidence_angle_deg": null,
        "oblique": false
      },
      "geometry": {
        "type": "Polygon",
        "coordinates": [
          [
            [
              44.54553,
              40.108541
            ],
            [
              44.545297,
              40.10742
            ],
            [
              44.54518,
              40.106299
            ],
            [
              44.545297,
              40.105626
            ],
            [
              44.545764,
              40.105178
            ],
            [
              44.545997,
              40.104415
            ],
            [
              44.546581,
              40.103967
            ],
            [
              44.547632,
              40.103832
            ],
            [
              44.548508,
              40.103922
            ],
            [
              44.549092,
              40.104505
            ],
            [
              44.549968,
              40.105178
            ],
            [
              44.550435,
              40.10585
            ],
            [
              44.550551,
              40.106747
            ],
            [
              44.550668,
              40.107644
            ],
            [
              44.551135,
              40.108093
            ],
            [
              44.551019,
              40.108765
            ],
            [
              44.55026,
              40.109079
            ],
            [
              44.549092,
              40.109348
            ],
            [
              44.547924,
              40.109528
            ],
            [
              44.546756,
              40.109662
            ],
            [
              44.545881,
              40.109438
            ],
            [
              44.54553,
              40.108541
            ]
          ]
        ]
      }
    },
    {
      "type": "Feature",
      "properties": {
        "date": "2020-09-18",
        "satellite": "sentinel-2-l2a",
        "area_ha": 25.01,
        "uncertainty_ha": 1.9,
        "meters_per_pixel": 10,
        "incidence_angle_deg": null,
        "oblique": false
      },
      "geometry": {
        "type": "Polygon",
        "coordinates": [
          [
            [
              44.54553,
              40.108541
            ],
            [
              44.545297,
              40.10742
            ],
            [
              44.54518,
              40.106299
            ],
            [
              44.545297,
              40.105626
            ],
            [
              44.545881,
              40.105178
            ],
            [
              44.546172,
              40.104415
            ],
            [
              44.546756,
              40.103967
            ],
            [
              44.547924,
              40.103742
            ],
            [
              44.5488,
              40.103832
            ],
            [
              44.549384,
              40.104281
            ],
            [
              44.549968,
              40.105178
            ],
            [
              44.550435,
              40.10585
            ],
            [
              44.550551,
              40.106747
            ],
            [
              44.550668,
              40.107644
            ],
            [
              44.551135,
              40.108093
            ],
            [
              44.551019,
              40.108765
            ],
            [
              44.55026,
              40.109079
            ],
            [
              44.549092,
              40.109348
            ],
            [
              44.547924,
              40.109528
            ],
            [
              44.546756,
              40.109662
            ],
            [
              44.545881,
              40.109438
            ],
            [
              44.54553,
              40.108541
            ]
          ]
        ]
      }
    },
    {
      "type": "Feature",
      "properties": {
        "date": "2021-09-28",
        "satellite": "sentinel-2-l2a",
        "area_ha": 26.64,
        "uncertainty_ha": 1.95,
        "meters_per_pixel": 10,
        "incidence_angle_deg": null,
        "oblique": false
      },
      "geometry": {
        "type": "Polygon",
        "coordinates": [
          [
            [
              44.54553,
              40.108541
            ],
            [
              44.545297,
              40.10742
            ],
            [
              44.545122,
              40.106299
            ],
            [
              44.54518,
              40.105402
            ],
            [
              44.545297,
              40.104505
            ],
            [
              44.545881,
              40.103967
            ],
            [
              44.546756,
              40.103698
            ],
            [
              44.547924,
              40.103742
            ],
            [
              44.5488,
              40.104056
            ],
            [
              44.5495,
              40.104505
            ],
            [
              44.549968,
              40.105178
            ],
            [
              44.550435,
              40.10585
            ],
            [
              44.550551,
              40.106747
            ],
            [
              44.550668,
              40.107644
            ],
            [
              44.551135,
              40.108093
            ],
            [
              44.551019,
              40.108765
            ],
            [
              44.55026,
              40.109124
            ],
            [
              44.549092,
              40.109438
            ],
            [
              44.547924,
              40.109662
            ],
            [
              44.546756,
              40.109752
            ],
            [
              44.545881,
              40.109528
            ],
            [
              44.54553,
              40.108541
            ]
          ]
        ]
      }
    },
    {
      "type": "Feature",
      "properties": {
        "date": "2022-09-28",
        "satellite": "sentinel-2-l2a",
        "area_ha": 28.02,
        "uncertainty_ha": 2.01,
        "meters_per_pixel": 10,
        "incidence_angle_deg": null,
        "oblique": false
      },
      "geometry": {
        "type": "Polygon",
        "coordinates": [
          [
            [
              44.54553,
              40.108541
            ],
            [
              44.545297,
              40.10742
            ],
            [
              44.545122,
              40.106299
            ],
            [
              44.54518,
              40.105402
            ],
            [
              44.545297,
              40.104415
            ],
            [
              44.545997,
              40.103832
            ],
            [
              44.546931,
              40.103518
            ],
            [
              44.548216,
              40.103518
            ],
            [
              44.549267,
              40.103832
            ],
            [
              44.549851,
              40.104415
            ],
            [
              44.550084,
              40.105178
            ],
            [
              44.550435,
              40.10585
            ],
            [
              44.550551,
              40.106747
            ],
            [
              44.550668,
              40.107644
            ],
            [
              44.551135,
              40.108093
            ],
            [
              44.551019,
              40.108765
            ],
            [
              44.55026,
              40.109214
            ],
            [
              44.549092,
              40.109528
            ],
            [
              44.547924,
              40.109662
            ],
            [
              44.546756,
              40.109752
            ],
            [
              44.545881,
              40.109528
            ],
            [
              44.54553,
              40.108541
            ]
          ]
        ]
      }
    },
    {
      "type": "Feature",
      "properties": {
        "date": "2023-08-14",
        "satellite": "sentinel-2-l2a",
        "area_ha": 27.29,
        "uncertainty_ha": 2,
        "meters_per_pixel": 10,
        "incidence_angle_deg": null,
        "oblique": false
      },
      "geometry": {
        "type": "Polygon",
        "coordinates": [
          [
            [
              44.54553,
              40.108541
            ],
            [
              44.545297,
              40.10742
            ],
            [
              44.545122,
              40.106299
            ],
            [
              44.545297,
              40.105402
            ],
            [
              44.545764,
              40.104953
            ],
            [
              44.545881,
              40.104281
            ],
            [
              44.546172,
              40.103698
            ],
            [
              44.546931,
              40.103518
            ],
            [
              44.548216,
              40.103608
            ],
            [
              44.549092,
              40.103832
            ],
            [
              44.549734,
              40.104415
            ],
            [
              44.550084,
              40.105178
            ],
            [
              44.550318,
              40.10585
            ],
            [
              44.550551,
              40.106747
            ],
            [
              44.550668,
              40.107644
            ],
            [
              44.551135,
              40.108093
            ],
            [
              44.551019,
              40.108765
            ],
            [
              44.55026,
              40.109214
            ],
            [
              44.549092,
              40.109528
            ],
            [
              44.547924,
              40.109752
            ],
            [
              44.546756,
              40.109797
            ],
            [
              44.545764,
              40.109528
            ],
            [
              44.54553,
              40.108541
            ]
          ]
        ]
      }
    },
    {
      "type": "Feature",
      "properties": {
        "date": "2024-09-02",
        "satellite": "sentinel-2-l2a",
        "area_ha": 28.77,
        "uncertainty_ha": 2.05,
        "meters_per_pixel": 10,
        "incidence_angle_deg": null,
        "oblique": false
      },
      "geometry": {
        "type": "Polygon",
        "coordinates": [
          [
            [
              44.54553,
              40.108541
            ],
            [
              44.545297,
              40.10742
            ],
            [
              44.545122,
              40.106299
            ],
            [
              44.54518,
              40.105402
            ],
            [
              44.545472,
              40.104729
            ],
            [
              44.545589,
              40.104056
            ],
            [
              44.546172,
              40.103518
            ],
            [
              44.547048,
              40.103249
            ],
            [
              44.548216,
              40.103294
            ],
            [
              44.549267,
              40.103698
            ],
            [
              44.549851,
              40.104415
            ],
            [
              44.550084,
              40.105178
            ],
            [
              44.550318,
              40.10585
            ],
            [
              44.550551,
              40.106747
            ],
            [
              44.550668,
              40.107644
            ],
            [
              44.551135,
              40.108093
            ],
            [
              44.551019,
              40.108765
            ],
            [
              44.55026,
              40.109214
            ],
            [
              44.549092,
              40.109528
            ],
            [
              44.547924,
              40.109752
            ],
            [
              44.546756,
              40.109797
            ],
            [
              44.545764,
              40.109528
            ],
            [
              44.54553,
              40.108541
            ]
          ]
        ]
      }
    },
    {
      "type": "Feature",
      "properties": {
        "date": "2025-08-18",
        "satellite": "sentinel-2-l2a",
        "area_ha": 31.17,
        "uncertainty_ha": 2.23,
        "meters_per_pixel": 10,
        "incidence_angle_deg": null,
        "oblique": false
      },
      "geometry": {
        "type": "Polygon",
        "coordinates": [
          [
            [
              44.545297,
              40.10899
            ],
            [
              44.545122,
              40.108093
            ],
            [
              44.545005,
              40.107196
            ],
            [
              44.544888,
              40.106075
            ],
            [
              44.545005,
              40.105178
            ],
            [
              44.545297,
              40.104595
            ],
            [
              44.54483,
              40.104146
            ],
            [
              44.544596,
              40.103698
            ],
            [
              44.545005,
              40.103249
            ],
            [
              44.546172,
              40.103159
            ],
            [
              44.547048,
              40.103384
            ],
            [
              44.5488,
              40.103832
            ],
            [
              44.549676,
              40.104281
            ],
            [
              44.55026,
              40.105178
            ],
            [
              44.550551,
              40.106075
            ],
            [
              44.550318,
              40.106747
            ],
            [
              44.550551,
              40.10742
            ],
            [
              44.550843,
              40.108093
            ],
            [
              44.551427,
              40.108541
            ],
            [
              44.551135,
              40.109079
            ],
            [
              44.55026,
              40.109438
            ],
            [
              44.549092,
              40.109662
            ],
            [
              44.547924,
              40.109797
            ],
            [
              44.546756,
              40.109752
            ],
            [
              44.545764,
              40.109528
            ],
            [
              44.545297,
              40.10899
            ]
          ]
        ]
      }
    },
    {
      "type": "Feature",
      "properties": {
        "date": "2026-08-23",
        "satellite": "sentinel-2-l2a",
        "area_ha": 32.84,
        "uncertainty_ha": 2.37,
        "meters_per_pixel": 10,
        "incidence_angle_deg": null,
        "oblique": false
      },
      "geometry": {
        "type": "Polygon",
        "coordinates": [
          [
            [
              44.545297,
              40.108765
            ],
            [
              44.545297,
              40.107644
            ],
            [
              44.545122,
              40.106523
            ],
            [
              44.545005,
              40.105626
            ],
            [
              44.544421,
              40.105402
            ],
            [
              44.544012,
              40.104864
            ],
            [
              44.544246,
              40.104056
            ],
            [
              44.544421,
              40.103249
            ],
            [
              44.545005,
              40.102621
            ],
            [
              44.545881,
              40.102352
            ],
            [
              44.546756,
              40.102487
            ],
            [
              44.54734,
              40.102935
            ],
            [
              44.547632,
              40.103608
            ],
            [
              44.548216,
              40.104056
            ],
            [
              44.549092,
              40.104505
            ],
            [
              44.549676,
              40.105178
            ],
            [
              44.550084,
              40.10585
            ],
            [
              44.550318,
              40.106523
            ],
            [
              44.550551,
              40.107196
            ],
            [
              44.550843,
              40.108003
            ],
            [
              44.55131,
              40.108451
            ],
            [
              44.551135,
              40.10899
            ],
            [
              44.550551,
              40.109348
            ],
            [
              44.549384,
              40.109573
            ],
            [
              44.548216,
              40.109797
            ],
            [
              44.546756,
              40.109887
            ],
            [
              44.545297,
              40.109662
            ],
            [
              44.545297,
              40.108765
            ]
          ]
        ]
      }
    }
  ]
}
