{
  "type": "FeatureCollection",
  "features": [
    {
      "type": "Feature",
      "properties": {
        "name": "frame",
        "note": "The bounds every frame is cut to."
      },
      "geometry": {
        "type": "Polygon",
        "coordinates": [
          [
            [
              44.53945805928936,
              40.099840655300035
            ],
            [
              44.55732424071064,
              40.099840655300035
            ],
            [
              44.55732424071064,
              40.11481984469997
            ],
            [
              44.53945805928936,
              40.11481984469997
            ],
            [
              44.53945805928936,
              40.099840655300035
            ]
          ]
        ]
      }
    },
    {
      "type": "Feature",
      "properties": {
        "name": "openstreetmap_outline",
        "osm_way": 323683797,
        "osm_version": 8,
        "area_ha": 40.7,
        "source": "© OpenStreetMap contributors, ODbL 1.0, https://www.openstreetmap.org/copyright"
      },
      "geometry": {
        "type": "Polygon",
        "coordinates": [
          [
            [
              44.5477738,
              40.110146
            ],
            [
              44.5462182,
              40.11029
            ],
            [
              44.5451551,
              40.1094762
            ],
            [
              44.5447147,
              40.1080526
            ],
            [
              44.5441561,
              40.1063328
            ],
            [
              44.5442906,
              40.1053451
            ],
            [
              44.5445506,
              40.104931
            ],
            [
              44.5446887,
              40.1043255
            ],
            [
              44.5452856,
              40.1038954
            ],
            [
              44.5460087,
              40.1035909
            ],
            [
              44.5472437,
              40.1034339
            ],
            [
              44.5485052,
              40.1039594
            ],
            [
              44.5498721,
              40.1042078
            ],
            [
              44.5499258,
              40.1046782
            ],
            [
              44.5500385,
              40.1049335
            ],
            [
              44.5512284,
              40.1056631
            ],
            [
              44.5515527,
              40.105866
            ],
            [
              44.5516585,
              40.1061264
            ],
            [
              44.551657,
              40.106395
            ],
            [
              44.5515103,
              40.1067635
            ],
            [
              44.55121,
              40.1069894
            ],
            [
              44.5507846,
              40.107003
            ],
            [
              44.5505221,
              40.1070246
            ],
            [
              44.5502279,
              40.1071868
            ],
            [
              44.5502222,
              40.1074446
            ],
            [
              44.5506477,
              40.107523
            ],
            [
              44.551195,
              40.1075197
            ],
            [
              44.5523043,
              40.1080702
            ],
            [
              44.5526176,
              40.1084058
            ],
            [
              44.5526262,
              40.1087069
            ],
            [
              44.5520287,
              40.109525
            ],
            [
              44.5516679,
              40.1102115
            ],
            [
              44.5510916,
              40.1112266
            ],
            [
              44.5502104,
              40.110963
            ],
            [
              44.5501056,
              40.1104574
            ],
            [
              44.5498467,
              40.1100762
            ],
            [
              44.5493322,
              40.109829
            ],
            [
              44.5489992,
              40.1099295
            ],
            [
              44.5486109,
              40.1101002
            ],
            [
              44.5477738,
              40.110146
            ]
          ]
        ]
      }
    }
  ]
}
